GLOBALSTAR M067         
1 32263U 07048A   25029.43134586 -.00000036  00000+0  45803-3 0  9999
2 32263  51.9731  81.9418 0001126  77.0931 296.2875 12.40665844792267
GLOBALSTAR M070         
1 32264U 07048B   25029.40024789 -.00000101  00000+0  18268-4 0  9999
2 32264  51.9727 191.3025 0001120 108.3790 267.4357 12.62311367796146
GLOBALSTAR M066         
1 32265U 07048C   25029.37268601 -.00000059  00000+0  28257-3 0  9999
2 32265  51.9676  68.3686 0000528 147.0852 225.5933 12.42170031798131
GLOBALSTAR M068         
1 32266U 07048D   25029.34207257 -.00000049  00000+0  30206-3 0  9993
2 32266  51.9908   5.5002 0000831 171.4206 336.2044 12.62814536800017
GLOBALSTAR M079         
1 37188U 10054A   25029.52014506 -.00000109  00000+0 -30955-4 0  9995
2 37188  52.0013 201.9119 0000985  76.3987 318.7095 12.62270423658949
GLOBALSTAR M074         
1 37189U 10054B   25029.46373383 -.00000109  00000+0 -29086-4 0  9993
2 37189  51.9989 201.4275 0001224  94.7183 283.6931 12.62262425659546
GLOBALSTAR M076         
1 37190U 10054C   25029.58239580 -.00000107  00000+0 -16440-4 0  9996
2 37190  52.0008 201.2233 0001272  79.8796 359.1642 12.62277295659270
GLOBALSTAR M077         
1 37191U 10054D   25029.63410397 -.00000112  00000+0 -46998-4 0  9997
2 37191  52.0059 157.8844 0000968 105.6696 266.9568 12.62270237659652
